STARLINK-1319           
1 45379U 20019V   24238.18711889  .00020632  00000+0  14005-2 0  9996
2 45379  53.0527 167.3007 0001325  77.4954 282.6183 15.06385645245108
STARLINK-1207           
1 45380U 20019W   24238.05259437  .00019194  00000+0  13045-2 0  9994
2 45380  53.0546 147.9099 0001892 107.2136 252.9060 15.06383716245368
STARLINK-1258           
1 45381U 20019X   24238.12999079  .00028735  00000+0  19407-2 0  9995
2 45381  53.0527 147.5596 0001207  84.3647 275.7479 15.06388958245368
STARLINK-1266           
1 45383U 20019Z   24238.05627804  .00026220  00000+0  17733-2 0  9990
2 45383  53.0530 147.8908 0001368 105.7906 254.3234 15.06385187245350
STARLINK-1267           
1 45384U 20019AA  24238.16104642  .00006928  00000+0  49424-3 0  9999
2 45384  53.0529 147.9345 0001665  95.8589 264.2589 15.05575758245369
STARLINK-1272           
1 45386U 20019AC  24237.91620836  .00020489  00000+0  13906-2 0  9994
2 45386  53.0529 148.5188 0001576  97.6620 262.4548 15.06393880245337
STARLINK-1274           
1 45387U 20019AD  24238.13736961  .00027204  00000+0  18382-2 0  9992
2 45387  53.0525 147.5259 0001300  99.5419 260.5717 15.06398907245347
STARLINK-1280           
1 45388U 20019AE  24237.50890844  .00006458  00000+0  45237-3 0  9992
2 45388  53.0539 170.3371 0001889  74.9871 285.1327 15.06371198244985
STARLINK-1283           
1 45389U 20019AF  24238.15211588  .00019179  00000+0  13030-2 0  9996
2 45389  53.0530 147.4583 0001996  90.8547 269.2671 15.06398739245372
STARLINK-1284           
1 45390U 20019AG  24238.12632184  .00009460  00000+0  65305-3 0  9999
2 45390  53.0526 147.5759 0001842 106.9937 253.1254 15.06404068245368
STARLINK-1289           
1 45391U 20019AH  24238.25001157  .00544016  00000+0  40515-2 0  9990
2 45391  53.0520 135.0749 0000614 109.9060  89.9663 15.70616136245271
STARLINK-1291           
1 45393U 20019AK  24238.03784059  .00021840  00000+0  14807-2 0  9997
2 45393  53.0528 147.9691 0001286  99.7353 260.3781 15.06396431245117
STARLINK-1292           
1 45394U 20019AL  24238.20002691  .00015382  00000+0  10491-2 0  9991
2 45394  53.0522 147.2429 0001384  95.4472 264.6675 15.06406466245117
STARLINK-1297           
1 45395U 20019AM  24238.16316573  .00027955  00000+0  18882-2 0  9995
2 45395  53.0530 147.4083 0001551  99.4122 260.7043 15.06400137245134
STARLINK-1303           
1 45396U 20019AN  24238.01205150  .00024104  00000+0  16318-2 0  9993
2 45396  53.0525 148.0876 0001320  74.2080 285.9055 15.06394014245064
STARLINK-1307           
1 45397U 20019AP  24238.15579708  .00027704  00000+0  18716-2 0  9995
2 45397  53.0526 147.4405 0001481  75.1014 285.0139 15.06396854245194
STARLINK-1312           
1 45398U 20019AQ  24238.01573185  .00024151  00000+0  16351-2 0  9990
2 45398  53.0525 148.0707 0001476  85.7602 274.3556 15.06390392245106
STARLINK-1255           
1 45399U 20019AR  24237.72546694  .00015908  00000+0  10845-2 0  9995
2 45399  53.0531 139.3759 0002165  76.7276 283.3955 15.06398449245257
STARLINK-1213           
1 45400U 20019AS  24237.84404944  .00126168  00000+0  34339-2 0  9997
2 45400  53.0795  85.4412 0002687 155.5238 204.5893 15.36589625245978
STARLINK-1256           
1 45401U 20019AT  24237.93555689  .00025106  00000+0  16973-2 0  9995
2 45401  53.0523 138.4284 0001954 103.4571 256.6635 15.06422375245283
STARLINK-1259           
1 45403U 20019AV  24237.94661719  .00016068  00000+0  10956-2 0  9992
2 45403  53.0529 138.3846 0001472  66.8591 293.2553 15.06384475245287
STARLINK-1260           
1 45404U 20019AW  24238.15671325  .00026941  00000+0  18209-2 0  9991
2 45404  53.0535 137.4419 0001405  86.3605 273.7545 15.06394104245228
STARLINK-1263           
1 45405U 20019AX  24237.94293460  .00023049  00000+0  15617-2 0  9994
2 45405  53.0530 138.3977 0001466  62.4609 297.6529 15.06387449245196
STARLINK-1265           
1 45406U 20019AY  24237.95030176  .00019430  00000+0  13201-2 0  9995
2 45406  53.0525 138.3668 0001311 102.1927 257.9208 15.06389183245192
STARLINK-1275           
1 45407U 20019AZ  24237.94476208  .00031505  00000+0  10335-2 0  9997
2 45407  53.0558 119.9968 0001773  79.0948 281.0251 15.31359690245457
STARLINK-1278           
1 45408U 20019BA  24237.84432317  .00000432  00000+0  47896-4 0  9999
2 45408  53.0543 168.8397 0002178 103.6132 256.5099 15.06396136244768
STARLINK-1282           
1 45409U 20019BB  24238.10512854  .00024029  00000+0  16266-2 0  9998
2 45409  53.0532 137.6732 0001434  87.9000 272.2153 15.06399085245220
STARLINK-1293           
1 45411U 20019BD  24237.98717192  .00022498  00000+0  15247-2 0  9994
2 45411  53.0525 138.2009 0001375  79.5776 280.5367 15.06394059245203
STARLINK-1296           
1 45412U 20019BE  24237.95398925  .00023757  00000+0  16089-2 0  9995
2 45412  53.0536 138.3513 0001220 102.1248 257.9878 15.06389024245192
STARLINK-1298           
1 45413U 20019BF  24237.98348134  .00023441  00000+0  15876-2 0  9999
2 45413  53.0524 138.2162 0001630  94.2837 265.8338 15.06394491245293
STARLINK-1309           
1 45414U 20019BG  24238.16777577  .00026792  00000+0  18111-2 0  9995
2 45414  53.0525 137.3905 0001140  70.5077 289.6035 15.06391422245232
STARLINK-1316           
1 45415U 20019BH  24237.99453793  .00025529  00000+0  17269-2 0  9997
2 45415  53.0528 138.1663 0001454  89.9569 270.1586 15.06392108245221
STARLINK-1318           
1 45416U 20019BJ  24238.09404616  .00022999  00000+0  15585-2 0  9997
2 45416  53.0529 137.7215 0001641  98.1637 261.9538 15.06385404245223
STARLINK-1286           
1 45417U 20019BK  24238.09865145  .00003786  00000+0  27295-3 0  9991
2 45417  53.0533 167.6957 0001283 101.1872 258.9261 15.06394225245086
STARLINK-1308           
1 45419U 20019BM  24238.09496754  .00019318  00000+0  13128-2 0  9996
2 45419  53.0538 167.7125 0001328 104.3382 255.7755 15.06384321244822
STARLINK-1329           
1 45531U 20025A   24237.93095667  .00019254  00000+0  13081-2 0  9995
2 45531  53.0532 108.4505 0001418  94.5656 265.5495 15.06396478240427
STARLINK-1338           
1 45532U 20025B   24237.94201477  .00003693  00000+0  26669-3 0  9992
2 45532  53.0532 108.4029 0001602  85.6634 274.4538 15.06401498240427
STARLINK-1341           
1 45534U 20025D   24238.01941501 -.00000076  00000+0  13820-4 0  9991
2 45534  53.0532 108.0581 0001784  95.0177 265.1015 15.06391881239841
STARLINK-1350           
1 45535U 20025E   24237.90515567  .00009312  00000+0  64312-3 0  9990
2 45535  53.0522 108.5690 0001563  87.7324 272.3844 15.06405180239831
STARLINK-1352           
1 45536U 20025F   24237.90883973  .00003903  00000+0  28081-3 0  9993
2 45536  53.0522 108.5480 0001297  88.6947 271.4190 15.06398496240415
STARLINK-1362           
1 45538U 20025H   24237.90786286  .00004253  00000+0  30422-3 0  9995
2 45538  53.0515 108.2738 0001391  82.2043 277.9104 15.06404956239833
STARLINK-1368           
1 45540U 20025K   24237.91252467  .00018630  00000+0  12661-2 0  9996
2 45540  53.0526 108.5337 0002297  97.8982 262.2268 15.06404598240412
STARLINK-1369           
1 45541U 20025L   24238.04891428  .00008461  00000+0  58611-3 0  9995
2 45541  53.0530 107.9175 0001149 105.4784 254.6332 15.06406030239858
STARLINK-1371           
1 45542U 20025M   24237.94938495 -.00001344  00000+0 -71356-4 0  9997
2 45542  53.0534 108.3702 0001508 113.0357 247.0791 15.06392076240428
STARLINK-1372           
1 45543U 20025N   24238.05259553  .00005753  00000+0  40473-3 0  9993
2 45543  53.0528 107.9038 0001518  89.3063 270.8100 15.06405769239856
STARLINK-1373           
1 45544U 20025P   24237.93832479  .00007259  00000+0  50570-3 0  9996
2 45544  53.0532 108.4185 0001512  84.6345 275.4816 15.06403080240420
STARLINK-1374           
1 45545U 20025Q   24237.82406214  .00001158  00000+0  96583-4 0  9996
2 45545  53.0534 108.9325 0001321 113.6354 246.4774 15.06401411240387
STARLINK-1375           
1 45546U 20025R   24237.90146805  .00000936  00000+0  81765-4 0  9992
2 45546  53.0537 108.5831 0001223  86.3743 273.7386 15.06389632240414
STARLINK-1377           
1 45547U 20025S   24238.25001157  .00423915  80742-4  12081-2 0  9997
2 45547  53.0419  34.2533 0005804 288.9578 109.3164 15.92738348240867
STARLINK-1378           
1 45548U 20025T   24237.94100524  .00000246  00000+0  35454-4 0  9994
2 45548  53.0544 107.8964 0001038 107.3055 252.8047 15.06362802240420
STARLINK-1390           
1 45550U 20025V   24238.04792712  .00004039  00000+0  29002-3 0  9990
2 45550  53.0547 107.6517 0001544 108.4190 251.6967 15.06387488239841
STARLINK-1294           
1 45551U 20025W   24237.87750963  .00002986  00000+0  21933-3 0  9997
2 45551  53.0544  88.6925 0001784  92.9942 267.1251 15.06393318240083
STARLINK-1323           
1 45553U 20025Y   24237.88857011  .00004834  00000+0  34314-3 0  9993
2 45553  53.0539  88.6425 0001301  87.9490 272.1648 15.06403239240092
STARLINK-1325           
1 45554U 20025Z   24237.87477171  .00011017  00000+0  74221-3 0  9990
2 45554  53.0538  88.6373 0000795  96.0348 264.0732 15.07153006240081
STARLINK-1327           
1 45555U 20025AA  24237.91067775  .00006859  00000+0  47877-3 0  9996
2 45555  53.0536  88.5421 0001091 102.1597 257.9514 15.06408938240690
STARLINK-1334           
1 45556U 20025AB  24237.88486607 -.00000208  00000+0  49166-5 0  9990
2 45556  53.0538  88.6599 0001623  92.8461 267.2714 15.06394234240099
STARLINK-1336           
1 45557U 20025AC  24237.89225010  .00004133  00000+0  29620-3 0  9992
2 45557  53.0531  88.6249 0001417  90.3972 269.7180 15.06402732240093
STARLINK-1342           
1 45558U 20025AD  24237.85908129  .00002754  00000+0  20373-3 0  9991
2 45558  53.0525  88.7702 0001602  89.8081 270.3092 15.06395863240087
STARLINK-1344           
1 45559U 20025AE  24238.25001157  .00315662  00000+0  13319-2 0  9998
2 45559  53.0481  29.0293 0007972 304.1202 332.9963 15.84016495240962
